[{"OBJECT_NAME":"STARLINK-30470","OBJECT_ID":"2023-146B","EPOCH":"2026-03-09T22:00:01.999584","MEAN_MOTION":15.12627424,"ECCENTRICITY":0.00017316,"INCLINATION":42.9994,"RA_OF_ASC_NODE":312.1287,"ARG_OF_PERICENTER":249.3024,"MEAN_ANOMALY":345.016,"EPHEMERIS_TYPE":0,"CLASSIFICATION_TYPE":"U","NORAD_CAT_ID":57892,"ELEMENT_SET_NO":999,"REV_AT_EPOCH":573,"BSTAR":0.087605194,"MEAN_MOTION_DOT":0.01705465,"MEAN_MOTION_DDOT":0},{"OBJECT_NAME":"HJS-6D","OBJECT_ID":"2025-067D","EPOCH":"2026-03-09T22:49:18.222240","MEAN_MOTION":15.37665042,"ECCENTRICITY":0.00092864,"INCLINATION":54.9903,"RA_OF_ASC_NODE":108.3969,"ARG_OF_PERICENTER":72.3879,"MEAN_ANOMALY":287.8162,"EPHEMERIS_TYPE":0,"CLASSIFICATION_TYPE":"U","NORAD_CAT_ID":63431,"ELEMENT_SET_NO":999,"REV_AT_EPOCH":5274,"BSTAR":0.0003282023,"MEAN_MOTION_DOT":0.00011947,"MEAN_MOTION_DDOT":0}]
